{"type": "FeatureCollection", "features": [ {"type": "Feature", "properties": {"norad_id": 33841, "name": "COSMOS 2251 DEB", "group": "cosmos-2251-debris", "lat": -25.849944173643163, "lon": -71.96367879980345, "alt_km": 760.8961939464216, "timestamp": "2025-12-02T23:34:15.909915+00:00", "meta": {"OBJECT_NAME": "COSMOS 2251 DEB", "OBJECT_ID": "1993-036CJ", "EPOCH": "2025-12-02T07:41:46.044384", "MEAN_MOTION": 14.37833942, "ECCENTRICITY": 0.0020065, "INCLINATION": 74.0372, "RA_OF_ASC_NODE": 297.2249, "ARG_OF_PERICENTER": 20.066, "MEAN_ANOMALY": 130.7792, "EPHEMERIS_TYPE": 0, "CLASSIFICATION_TYPE": "U", "NORAD_CAT_ID": 33841, "ELEMENT_SET_NO": 999, "REV_AT_EPOCH": 87964, "BSTAR": 0.00033882, "MEAN_MOTION_DOT": 9.98e-06, "MEAN_MOTION_DDOT": 0}, "tle": {"line1": "1 33841U 93036CJ  25336.32067181  .00000998  00000+0  33882-3 0  9999", "line2": "2 33841  74.0372 297.2249 0020065  20.0660 130.7792 14.37833942879643"}}, "geometry": {"type": "Point", "coordinates": [-71.96367879980345, -25.849944173643163]}}, {"type": "Feature", "properties": {"norad_id": 33842, "name": "COSMOS 2251 DEB", "group": "cosmos-2251-debris", "lat": 55.37933775038794, "lon": -97.73768333900107, "alt_km": 733.5231040730423, "timestamp": "2025-12-02T23:34:15.909925+00:00", "meta": {"OBJECT_NAME": "COSMOS 2251 DEB", "OBJECT_ID": "1993-036CK", "EPOCH": "2025-12-02T09:59:13.004736", "MEAN_MOTION": 14.42660637, "ECCENTRICITY": 0.0046934, "INCLINATION": 74.0335, "RA_OF_ASC_NODE": 238.8124, "ARG_OF_PERICENTER": 348.2676, "MEAN_ANOMALY": 11.7382, "EPHEMERIS_TYPE": 0, "CLASSIFICATION_TYPE": "U", "NORAD_CAT_ID": 33842, "ELEMENT_SET_NO": 999, "REV_AT_EPOCH": 88188, "BSTAR": 0.00044692, "MEAN_MOTION_DOT": 1.479e-05, "MEAN_MOTION_DDOT": 0}, "tle": {"line1": "1 33842U 93036CK  25336.41612274  .00001479  00000+0  44692-3 0  9995", "line2": "2 33842  74.0335 238.8124 0046934 348.2676  11.7382 14.42660637881888"}}, "geometry": {"type": "Point", "coordinates": [-97.73768333900107, 55.37933775038794]}}, {"type": "Feature", "properties": {"norad_id": 33844, "name": "COSMOS 2251 DEB", "group": "cosmos-2251-debris", "lat": -52.931448803387426, "lon": 48.37289708688631, "alt_km": 815.8039879851776, "timestamp": "2025-12-02T23:34:15.909936+00:00", "meta": {"OBJECT_NAME": "COSMOS 2251 DEB", "OBJECT_ID": "1993-036CM", "EPOCH": "2025-12-02T12:11:23.609760", "MEAN_MOTION": 14.33678852, "ECCENTRICITY": 0.0047219, "INCLINATION": 74.067, "RA_OF_ASC_NODE": 71.4572, "ARG_OF_PERICENTER": 96.6588, "MEAN_ANOMALY": 281.023, "EPHEMERIS_TYPE": 0, "CLASSIFICATION_TYPE": "U", "NORAD_CAT_ID": 33844, "ELEMENT_SET_NO": 999, "REV_AT_EPOCH": 87579, "BSTAR": 0.00056449, "MEAN_MOTION_DOT": 1.56e-05, "MEAN_MOTION_DDOT": 0}, "tle": {"line1": "1 33844U 93036CM  25336.50791215  .00001560  00000+0  56449-3 0  9994", "line2": "2 33844  74.0670  71.4572 0047219  96.6588 281.0230 14.33678852875798"}}, "geometry": {"type": "Point", "coordinates": [48.37289708688631, -52.931448803387426]}}, {"type": "Feature", "properties": {"norad_id": 33848, "name": "COSMOS 2251 DEB", "group": "cosmos-2251-debris", "lat": 54.638868784326995, "lon": 172.00326560355091, "alt_km": 719.9154531106697, "timestamp": "2025-12-02T23:34:15.909947+00:00", "meta": {"OBJECT_NAME": "COSMOS 2251 DEB", "OBJECT_ID": "1993-036CR", "EPOCH": "2025-12-02T05:00:09.281664", "MEAN_MOTION": 14.43950643, "ECCENTRICITY": 0.00409138, "INCLINATION": 74.0328, "RA_OF_ASC_NODE": 17.2364, "ARG_OF_PERICENTER": 76.7241, "MEAN_ANOMALY": 344.6723, "EPHEMERIS_TYPE": 0, "CLASSIFICATION_TYPE": "U", "NORAD_CAT_ID": 33848, "ELEMENT_SET_NO": 999, "REV_AT_EPOCH": 87679, "BSTAR": 0.0010727998, "MEAN_MOTION_DOT": 3.676e-05, "MEAN_MOTION_DDOT": 0}, "tle": {"line1": "1 33848U 93036CR  25336.20844076  .00003676  00000+0  10728-2 0  9998", "line2": "2 33848  74.0328  17.2364 0040913  76.7241 344.6723 14.43950643876794"}}, "geometry": {"type": "Point", "coordinates": [172.00326560355091, 54.638868784326995]}}, {"type": "Feature", "properties": {"norad_id": 33892, "name": "COSMOS 2251 DEB", "group": "cosmos-2251-debris", "lat": 48.13884319333865, "lon": 138.78724685903987, "alt_km": 825.7256339033365, "timestamp": "2025-12-02T23:34:15.909957+00:00", "meta": {"OBJECT_NAME": "COSMOS 2251 DEB", "OBJECT_ID": "1993-036CV", "EPOCH": "2025-12-02T11:50:08.948832", "MEAN_MOTION": 14.23263519, "ECCENTRICITY": 0.011366, "INCLINATION": 73.8017, "RA_OF_ASC_NODE": 120.749, "ARG_OF_PERICENTER": 153.8851, "MEAN_ANOMALY": 273.9359, "EPHEMERIS_TYPE": 0, "CLASSIFICATION_TYPE": "U", "NORAD_CAT_ID": 33892, "ELEMENT_SET_NO": 999, "REV_AT_EPOCH": 86809, "BSTAR": 0.0012248, "MEAN_MOTION_DOT": 2.938e-05, "MEAN_MOTION_DDOT": 0}, "tle": {"line1": "1 33892U 93036CV  25336.49315913  .00002938  00000+0  12248-2 0  9990", "line2": "2 33892  73.8017 120.7490 0113660 153.8851 273.9359 14.23263519868099"}}, "geometry": {"type": "Point", "coordinates": [138.78724685903987, 48.13884319333865]}}, {"type": "Feature", "properties": {"norad_id": 33894, "name": "COSMOS 2251 DEB", "group": "cosmos-2251-debris", "lat": -50.45244784074632, "lon": -16.4789018755728, "alt_km": 776.5402131684332, "timestamp": "2025-12-02T23:34:15.909968+00:00", "meta": {"OBJECT_NAME": "COSMOS 2251 DEB", "OBJECT_ID": "1993-036CX", "EPOCH": "2025-12-02T03:49:58.594944", "MEAN_MOTION": 13.21246326, "ECCENTRICITY": 0.05793089, "INCLINATION": 73.7666, "RA_OF_ASC_NODE": 5.4523, "ARG_OF_PERICENTER": 286.2375, "MEAN_ANOMALY": 67.575, "EPHEMERIS_TYPE": 0, "CLASSIFICATION_TYPE": "U", "NORAD_CAT_ID": 33894, "ELEMENT_SET_NO": 999, "REV_AT_EPOCH": 80568, "BSTAR": 0.0022342216, "MEAN_MOTION_DOT": 2.199e-05, "MEAN_MOTION_DDOT": 0}, "tle": {"line1": "1 33894U 93036CX  25336.15970596  .00002199  00000+0  22342-2 0  9994", "line2": "2 33894  73.7666   5.4523 0579308 286.2375  67.5750 13.21246326805685"}}, "geometry": {"type": "Point", "coordinates": [-16.4789018755728, -50.45244784074632]}}, {"type": "Feature", "properties": {"norad_id": 33896, "name": "COSMOS 2251 DEB", "group": "cosmos-2251-debris", "lat": -73.75442217281879, "lon": 85.22028349041167, "alt_km": 820.9953149549156, "timestamp": "2025-12-02T23:34:15.909978+00:00", "meta": {"OBJECT_NAME": "COSMOS 2251 DEB", "OBJECT_ID": "1993-036CZ", "EPOCH": "2025-12-01T23:10:45.067296", "MEAN_MOTION": 14.18995904, "ECCENTRICITY": 0.01259889, "INCLINATION": 73.7658, "RA_OF_ASC_NODE": 176.2416, "ARG_OF_PERICENTER": 353.6454, "MEAN_ANOMALY": 128.2182, "EPHEMERIS_TYPE": 0, "CLASSIFICATION_TYPE": "U", "NORAD_CAT_ID": 33896, "ELEMENT_SET_NO": 999, "REV_AT_EPOCH": 86587, "BSTAR": 0.00066116482, "MEAN_MOTION_DOT": 1.466e-05, "MEAN_MOTION_DDOT": 0}, "tle": {"line1": "1 33896U 93036CZ  25335.96579939  .00001466  00000+0  66116-3 0  9994", "line2": "2 33896  73.7658 176.2416 0125988 353.6454 128.2182 14.18995904865875"}}, "geometry": {"type": "Point", "coordinates": [85.22028349041167, -73.75442217281879]}}, {"type": "Feature", "properties": {"norad_id": 33899, "name": "COSMOS 2251 DEB", "group": "cosmos-2251-debris", "lat": -68.46559795271581, "lon": -29.203096789855888, "alt_km": 693.4616049062561, "timestamp": "2025-12-02T23:34:15.909988+00:00", "meta": {"OBJECT_NAME": "COSMOS 2251 DEB", "OBJECT_ID": "1993-036DC", "EPOCH": "2025-12-02T11:14:58.011072", "MEAN_MOTION": 14.61004679, "ECCENTRICITY": 0.0057867, "INCLINATION": 74.0525, "RA_OF_ASC_NODE": 105.3385, "ARG_OF_PERICENTER": 170.8054, "MEAN_ANOMALY": 264.6589, "EPHEMERIS_TYPE": 0, "CLASSIFICATION_TYPE": "U", "NORAD_CAT_ID": 33899, "ELEMENT_SET_NO": 999, "REV_AT_EPOCH": 88689, "BSTAR": 0.0014757, "MEAN_MOTION_DOT": 7.39e-05, "MEAN_MOTION_DDOT": 0}, "tle": {"line1": "1 33899U 93036DC  25336.46872698  .00007390  00000+0  14757-2 0  9996", "line2": "2 33899  74.0525 105.3385 0057867 170.8054 264.6589 14.61004679886897"}}, "geometry": {"type": "Point", "coordinates": [-29.203096789855888, -68.46559795271581]}}, {"type": "Feature", "properties": {"norad_id": 33900, "name": "COSMOS 2251 DEB", "group": "cosmos-2251-debris", "lat": 26.307840936724634, "lon": 26.599296889614685, "alt_km": 725.0960970656179, "timestamp": "2025-12-02T23:34:15.909999+00:00", "meta": {"OBJECT_NAME": "COSMOS 2251 DEB", "OBJECT_ID": "1993-036DD", "EPOCH": "2025-12-02T12:27:55.970784", "MEAN_MOTION": 14.58285246, "ECCENTRICITY": 0.0047453, "INCLINATION": 74.0201, "RA_OF_ASC_NODE": 19.3357, "ARG_OF_PERICENTER": 174.1906, "MEAN_ANOMALY": 305.4068, "EPHEMERIS_TYPE": 0, "CLASSIFICATION_TYPE": "U", "NORAD_CAT_ID": 33900, "ELEMENT_SET_NO": 999, "REV_AT_EPOCH": 88887, "BSTAR": 0.00056616, "MEAN_MOTION_DOT": 2.629e-05, "MEAN_MOTION_DDOT": 0}, "tle": {"line1": "1 33900U 93036DD  25336.51939781  .00002629  00000+0  56616-3 0  9993", "line2": "2 33900  74.0201  19.3357 0047453 174.1906 305.4068 14.58285246888870"}}, "geometry": {"type": "Point", "coordinates": [26.599296889614685, 26.307840936724634]}}, {"type": "Feature", "properties": {"norad_id": 33901, "name": "COSMOS 2251 DEB", "group": "cosmos-2251-debris", "lat": 2.8339156301351456, "lon": -110.90437713875347, "alt_km": 503.9832751191625, "timestamp": "2025-12-02T23:34:15.910024+00:00", "meta": {"OBJECT_NAME": "COSMOS 2251 DEB", "OBJECT_ID": "1993-036DE", "EPOCH": "2025-12-02T08:31:04.274112", "MEAN_MOTION": 15.13952388, "ECCENTRICITY": 0.0035471, "INCLINATION": 73.7718, "RA_OF_ASC_NODE": 71.2448, "ARG_OF_PERICENTER": 203.2641, "MEAN_ANOMALY": 156.6948, "EPHEMERIS_TYPE": 0, "CLASSIFICATION_TYPE": "U", "NORAD_CAT_ID": 33901, "ELEMENT_SET_NO": 999, "REV_AT_EPOCH": 89356, "BSTAR": 0.0040618, "MEAN_MOTION_DOT": 0.00075545, "MEAN_MOTION_DDOT": 0}, "tle": {"line1": "1 33901U 93036DE  25336.35491058  .00075545  00000+0  40618-2 0  9997", "line2": "2 33901  73.7718  71.2448 0035471 203.2641 156.6948 15.13952388893560"}}, "geometry": {"type": "Point", "coordinates": [-110.90437713875347, 2.8339156301351456]}}]}